NORAD_CAT_ID,OBJECT_NAME,OBJECT_TYPE,EPOCH,MEAN_MOTION,ECCENTRICITY,INCLINATION,RA_OF_ASC_NODE,ARG_OF_PERICENTER,MEAN_ANOMALY,BSTAR,MEAN_MOTION_DOT,MEAN_MOTION_DDOT,TLE_LINE0,TLE_LINE1,TLE_LINE2,SEMIMAJOR_AXIS,PERIOD,APOGEE,PERIGEE,DECAYED
53723.0,STARLINK-4705,PAYLOAD,2024-08-12 10:06:17,15.08854515,0.0001946,53.2162,311.765,82.7607,277.3606,0.00043874,6.704e-05,0.0,0 STARLINK-4705,1 53723U 22107Z   24225.42103704  .00006704  00000-0  43874-3 0  9994,2 53723  53.2162 311.7650 0001946  82.7607 277.3606 15.08854515107869,6917.836,95.437,541.047,538.355,0.0
53723.0,STARLINK-4705,PAYLOAD,2024-08-13 05:10:53,15.088684,0.0003333,53.2137,308.1956,86.7742,273.3631,0.00037377,5.67e-05,0.0,0 STARLINK-4705,1 53723U 22107Z   24226.21590101  .00005670  00000-0  37377-3 0  9995,2 53723  53.2137 308.1956 0003333  86.7742 273.3631 15.08868400107385,6917.794,95.436,541.964,537.353,0.0
53723.0,STARLINK-4705,PAYLOAD,2024-08-13 11:32:29,15.08776587,0.0001558,53.2168,307.0045,72.8966,287.2197,-0.0012869,-0.00020675,0.0,0 STARLINK-4705,1 53723U 22107Z   24226.48089943 -.00020675  00000-0 -12869-2 0  9993,2 53723  53.2168 307.0045 0001558  72.8966 287.2197 15.08776587107427,6918.074,95.442,541.017,538.861,0.0
53723.0,STARLINK-4705,PAYLOAD,2024-08-13 22:40:13,15.0877743,0.0002176,53.2178,304.9202,75.2438,284.8795,-0.0010444,-0.00016843,0.0,0 STARLINK-4705,1 53723U 22107Z   24226.94459495 -.00016843  00000-0 -10444-2 0  9996,2 53723  53.2178 304.9202 0002176  75.2438 284.8795 15.08777430108096,6918.072,95.442,541.442,538.431,0.0
53723.0,STARLINK-4705,PAYLOAD,2024-08-14 05:01:43,15.08840237,0.0001593,53.2158,303.7356,48.2514,311.8614,0.00035239,5.325e-05,0.0,0 STARLINK-4705,1 53723U 22107Z   24227.20953592  .00005325  00000-0  35239-3 0  9994,2 53723  53.2158 303.7356 0001593  48.2514 311.8614 15.08840237107533,6917.88,95.438,540.847,538.643,0.0
53723.0,STARLINK-4705,PAYLOAD,2024-08-14 11:23:16,15.08842439,0.0001479,53.2144,302.545,47.8874,312.2244,0.00046031,7.046e-05,0.0,0 STARLINK-4705,1 53723U 22107Z   24227.47449674  .00007046  00000-0  46031-3 0  9998,2 53723  53.2144 302.5450 0001479  47.8874 312.2244 15.08842439108178,6917.873,95.437,540.761,538.715,0.0
53723.0,STARLINK-4705,PAYLOAD,2024-08-14 22:30:58,15.08843954,0.0001308,53.2139,300.4613,51.7535,308.3574,0.00099248,0.00015544,0.0,0 STARLINK-4705,1 53723U 22107Z   24227.93818121  .00015544  00000-0  99248-3 0  9996,2 53723  53.2139 300.4613 0001308  51.7535 308.3574 15.08843954108242,6917.868,95.437,540.638,538.828,0.0
53723.0,STARLINK-4705,PAYLOAD,2024-08-15 11:14:03,15.08840474,0.0001405,53.2161,298.0814,77.521,282.5939,0.00044681,6.83e-05,0.0,0 STARLINK-4705,1 53723U 22107Z   24228.46809545  .00006830  00000-0  44681-3 0  9994,2 53723  53.2161 298.0814 0001405  77.5210 282.5939 15.08840474108327,6917.879,95.438,540.716,538.772,0.0
53723.0,STARLINK-4705,PAYLOAD,2024-08-16 09:29:26,15.08868456,0.0001621,53.2166,293.9161,63.8814,296.2345,-0.00027965,-4.739e-05,0.0,0 STARLINK-4705,1 53723U 22107Z   24229.39544669 -.00004739  00000-0 -27965-3 0  9994,2 53723  53.2166 293.9161 0001621  63.8814 296.2345 15.08868456108467,6917.793,95.436,540.78,538.537,0.0
53723.0,STARLINK-4705,PAYLOAD,2024-08-17 04:34:05,15.08839095,0.0001184,53.2144,290.3508,44.819,315.2898,-1.206e-05,-4.8e-06,0.0,0 STARLINK-4705,1 53723U 22107Z   24230.19033596 -.00000480  00000-0 -12060-4 0  9996,2 53723  53.2144 290.3508 0001184  44.8190 315.2898 15.08839095107987,6917.883,95.438,540.567,538.929,0.0
53723.0,STARLINK-4705,PAYLOAD,2024-08-17 07:44:51,15.0883899,0.0001185,53.2146,289.756,45.1458,314.963,-1.7612e-05,-5.68e-06,0.0,0 STARLINK-4705,1 53723U 22107Z   24230.32281580 -.00000568  00000-0 -17612-4 0  9994,2 53723  53.2146 289.7560 0001185  45.1458 314.9630 15.08838990108604,6917.883,95.438,540.568,538.929,0.0
53723.0,STARLINK-4705,PAYLOAD,2024-08-18 04:24:51,15.08843964,0.0001197,53.2158,285.8923,54.6828,305.4276,6.5356e-05,7.53e-06,0.0,0 STARLINK-4705,1 53723U 22107Z   24231.18392849  .00000753  00000-0  65356-4 0  9992,2 53723  53.2158 285.8923 0001197  54.6828 305.4276 15.08843964108132,6917.868,95.437,540.561,538.905,0.0
53723.0,STARLINK-4705,PAYLOAD,2024-08-18 10:46:23,15.08848369,0.0001173,53.2171,284.7015,72.2017,287.9103,0.00012477,1.699e-05,0.0,0 STARLINK-4705,1 53723U 22107Z   24231.44888286  .00001699  00000-0  12477-3 0  9991,2 53723  53.2171 284.7015 0001173  72.2017 287.9103 15.08848369108774,6917.855,95.437,540.531,538.908,0.0
53723.0,STARLINK-4705,PAYLOAD,2024-08-19 10:37:11,15.08830514,0.0001172,53.2166,280.2415,84.3968,275.7158,3.775e-05,3.13e-06,0.0,0 STARLINK-4705,1 53723U 22107Z   24232.44249797  .00000313  00000-0  37750-4 0  9994,2 53723  53.2166 280.2415 0001172  84.3968 275.7158 15.08830514108320,6917.909,95.438,540.585,538.964,0.0
53723.0,STARLINK-4705,PAYLOAD,2024-08-19 13:47:57,15.08833838,0.0001127,53.2167,279.6457,82.1205,277.9915,2.2278e-05,6.7e-07,0.0,0 STARLINK-4705,1 53723U 22107Z   24232.57497654  .00000067  00000-0  22278-4 0  9990,2 53723  53.2167 279.6457 0001127  82.1205 277.9915 15.08833838108944,6917.899,95.438,540.544,538.985,0.0
53723.0,STARLINK-4705,PAYLOAD,2024-08-21 02:21:49,15.0883662,0.0001096,53.2157,272.8059,74.1054,286.0058,0.00010092,1.319e-05,0.0,0 STARLINK-4705,1 53723U 22107Z   24234.09849469  .00001319  00000-0  10092-3 0  9995,2 53723  53.2157 272.8059 0001096  74.1054 286.0058 15.08836620108574,6917.891,95.438,540.514,538.998,0.0
53723.0,STARLINK-4705,PAYLOAD,2024-08-21 10:18:45,15.08837637,0.0001132,53.2158,271.319,73.2979,286.8138,0.00010131,1.325e-05,0.0,0 STARLINK-4705,1 53723U 22107Z   24234.42969562  .00001325  00000-0  10131-3 0  9990,2 53723  53.2158 271.3190 0001132  73.2979 286.8138 15.08837637109221,6917.888,95.438,540.536,538.97,0.0
53723.0,STARLINK-4705,PAYLOAD,2024-08-21 19:51:04,15.08840606,0.0001125,53.2158,269.535,76.7921,283.3196,0.00010538,1.39e-05,0.0,0 STARLINK-4705,1 53723U 22107Z   24234.82713408  .00001390  00000-0  10538-3 0  9993,2 53723  53.2158 269.5350 0001125  76.7921 283.3196 15.08840606109287,6917.879,95.438,540.522,538.965,0.0
